     2              NAVIGATION DATA                         RINEX VERSION / TYPE
CCRINEXN V1.6.0 UX  CDDIS               21-JUN-16 15:33     PGM / RUN BY / DATE 
IGS BROADCAST EPHEMERIS FILE                                COMMENT             
    0.4657D-08  0.1490D-07 -0.5960D-07 -0.1192D-06          ION ALPHA           
    0.8192D+05  0.9830D+05 -0.6554D+05 -0.5243D+06          ION BETA            
    0.745058059692D-08 0.213162820728D-13   233472     1902 DELTA-UTC: A0,A1,T,W
    17                                                      LEAP SECONDS        
                                                            END OF HEADER       
29 16  6 20 16  0  0.0 0.656501855701D-03-0.341060513165D-12 0.000000000000D+00
    0.590000000000D+02-0.142000000000D+03 0.393409244217D-08 0.305499790088D+01
   -0.754185020924D-05 0.887136091478D-03 0.744126737118D-05 0.515356314850D+04
    0.144000000000D+06 0.130385160446D-07 0.262612392282D+01 0.186264514923D-07
    0.977888422486D+00 0.245375000000D+03-0.149309290051D+00-0.780961101593D-08
   -0.403945397376D-09 0.000000000000D+00 0.190200000000D+04 0.000000000000D+00
    0.200000000000D+01 0.000000000000D+00-0.102445483208D-07 0.590000000000D+02
    0.136800000000D+06 0.400000000000D+01 0.000000000000D+00 0.000000000000D+00
30 16  6 20 16  0  0.0 0.134405214339D-03 0.261479726760D-11 0.000000000000D+00
    0.104000000000D+03 0.126812500000D+03 0.461769234542D-08-0.190547611258D+01
    0.637769699097D-05 0.220032420475D-02 0.840798020363D-05 0.515359723282D+04
    0.144000000000D+06 0.372529029846D-08 0.542884593848D+00-0.260770320892D-07
    0.952212445916D+00 0.218125000000D+03 0.304545901376D+01-0.805712132573D-08
    0.256439253153D-09 0.100000000000D+01 0.190200000000D+04 0.000000000000D+00
    0.280000000000D+01 0.000000000000D+00 0.325962901115D-08 0.104000000000D+03
    0.136800000000D+06 0.400000000000D+01 0.000000000000D+00 0.000000000000D+00
31 16  6 20 16  0  0.0 0.262944959104D-03-0.193267624127D-11 0.000000000000D+00
    0.340000000000D+02 0.119687500000D+03 0.419267464173D-08-0.216019456628D+01
    0.622868537903D-05 0.816596706864D-02 0.922195613384D-05 0.515377210045D+04
    0.144000000000D+06-0.216066837311D-06 0.508552580742D+00-0.447034835815D-07
    0.971262749472D+00 0.212312500000D+03-0.395349342127D+00-0.778639576321D-08
    0.238224208709D-09 0.000000000000D+00 0.190200000000D+04 0.000000000000D+00
    0.200000000000D+01 0.000000000000D+00-0.135041773319D-07 0.340000000000D+02
    0.139320000000D+06 0.400000000000D+01 0.000000000000D+00 0.000000000000D+00
32 16  6 20 16  0  0.0-0.289180316031D-04-0.852651282912D-11 0.000000000000D+00
    0.840000000000D+02-0.131250000000D+02 0.447625788268D-08 0.111376043401D+01
   -0.802800059319D-06 0.502316164784D-03 0.925175845623D-05 0.515361907005D+04
    0.144000000000D+06-0.428408384323D-07-0.577060001574D+00-0.409781932831D-07
    0.959606222605D+00 0.196500000000D+03-0.230053904899D+01-0.788675708652D-08
   -0.497520723735D-09 0.000000000000D+00 0.190200000000D+04 0.000000000000D+00
    0.200000000000D+01 0.000000000000D+00 0.465661287308D-09 0.840000000000D+02
    0.137010000000D+06 0.400000000000D+01 0.000000000000D+00 0.000000000000D+00
 2 16  6 20 17 59 44.0 0.584071967751D-03-0.261479726760D-11 0.000000000000D+00
    0.400000000000D+01-0.158437500000D+02 0.481520068263D-08 0.117308401794D+00
   -0.713393092155D-06 0.157866979716D-01 0.109393149614D-04 0.515358422089D+04
    0.151184000000D+06-0.160187482834D-06-0.270568392381D+01 0.283122062683D-06
    0.943635225555D+00 0.163218750000D+03-0.210829119982D+01-0.826534396481D-08
    0.347871620399D-09 0.100000000000D+01 0.190200000000D+04 0.000000000000D+00
    0.200000000000D+01 0.000000000000D+00-0.200234353542D-07 0.400000000000D+01
    0.145350000000D+06 0.000000000000D+00 0.000000000000D+00 0.000000000000D+00
 8 16  6 20 17 59 44.0-0.397730618715D-04-0.147792889038D-11 0.000000000000D+00
    0.000000000000D+00-0.128375000000D+03 0.452233123039D-08 0.270771597407D+01
   -0.640377402306D-05 0.170626922045D-02 0.612810254097D-05 0.515371088982D+04
    0.151184000000D+06 0.987201929092D-07 0.256340669956D+01 0.242143869400D-07
    0.963715569730D+00 0.261656250000D+03-0.106787889479D+01-0.809355141462D-08
   -0.301083969927D-09 0.100000000000D+01 0.190200000000D+04 0.000000000000D+00
    0.200000000000D+01 0.000000000000D+00 0.465661287308D-08 0.000000000000D+00
    0.150960000000D+06 0.400000000000D+01 0.000000000000D+00 0.000000000000D+00
11 16  6 20 17 59 44.0-0.652425456792D-03-0.250111042988D-11 0.000000000000D+00
    0.120000000000D+02-0.566562500000D+02 0.583738600770D-08-0.856797201271D+00
   -0.290200114250D-05 0.164735709550D-01 0.105276703834D-04 0.515367211723D+04
    0.151184000000D+06-0.257045030594D-06-0.303817146394D+01 0.139698386192D-06
    0.897341295581D+00 0.142843750000D+03 0.153343350292D+01-0.881465287996D-08
    0.126790995640D-09 0.100000000000D+01 0.190200000000D+04 0.000000000000D+00
    0.200000000000D+01 0.000000000000D+00-0.121071934700D-07 0.120000000000D+02
    0.145860000000D+06 0.400000000000D+01 0.000000000000D+00 0.000000000000D+00
15 16  6 20 17 59 44.0-0.316103454679D-03-0.159161572810D-11 0.000000000000D+00
    0.130000000000D+02-0.140937500000D+02 0.513271379813D-08 0.105421594359D+01
   -0.674277544022D-06 0.816972600296D-02 0.878982245922D-05 0.515361068916D+04
    0.151184000000D+06-0.577419996262D-07-0.631756669670D+00 0.894069671631D-07
    0.930674555497D+00 0.194531250000D+03 0.482690760911D+00-0.826498712703D-08
   -0.627883296717D-09 0.000000000000D+00 0.190200000000D+04 0.000000000000D+00
    0.200000000000D+01 0.000000000000D+00-0.107102096081D-07 0.130000000000D+02
    0.144000000000D+06 0.400000000000D+01 0.000000000000D+00 0.000000000000D+00
26 16  6 20 17 59 44.0-0.401403754950D-03-0.110276232590D-10 0.000000000000D+00
    0.100000000000D+02 0.349687500000D+02 0.497949313016D-08-0.290368110248D+01
    0.181235373020D-05 0.101457070559D-02 0.458210706711D-06 0.515377443314D+04
    0.151184000000D+06-0.968575477600D-07 0.151531233813D+01 0.000000000000D+00
    0.960189028687D+00 0.372656250000D+03 0.201316672916D+00-0.852214069565D-08
    0.129648257513D-09 0.000000000000D+00 0.190200000000D+04 0.000000000000D+00
    0.200000000000D+01 0.000000000000D+00 0.698491930962D-08 0.100000000000D+02
    0.146820000000D+06 0.400000000000D+01 0.000000000000D+00 0.000000000000D+00
30 16  6 20 17 59 44.0 0.134423840791D-03 0.261479726760D-11 0.000000000000D+00
    0.120000000000D+02 0.119375000000D+03 0.449518724259D-08-0.857514187662D+00
    0.607408583164D-05 0.220083212480D-02 0.799819827080D-05 0.515359769440D+04
    0.151184000000D+06-0.242143869400D-07 0.542826561351D+00-0.149011611938D-07
    0.952214376968D+00 0.217531250000D+03 0.304539171514D+01-0.804783522464D-08
    0.283583240952D-09 0.100000000000D+01 0.190200000000D+04 0.000000000000D+00
    0.200000000000D+01 0.000000000000D+00 0.325962901115D-08 0.120000000000D+02
    0.144000000000D+06 0.400000000000D+01 0.000000000000D+00 0.000000000000D+00
 1 16  6 20 18  0  0.0 0.242758542299D-04 0.125055521494D-11 0.000000000000D+00
    0.640000000000D+02-0.186875000000D+02 0.426160608443D-08-0.248645378975D+00
   -0.111386179924D-05 0.558217556682D-02 0.101756304503D-04 0.515364647675D+04
    0.151200000000D+06 0.558793544769D-07-0.265964888645D+01 0.465661287308D-07
    0.964828648506D+00 0.183406250000D+03 0.474465806834D+00-0.784389815841D-08
    0.293226499775D-09 0.100000000000D+01 0.190200000000D+04 0.000000000000D+00
    0.200000000000D+01 0.000000000000D+00 0.512227416039D-08 0.640000000000D+02
    0.150150000000D+06 0.400000000000D+01 0.000000000000D+00 0.000000000000D+00
 2 16  6 20 18  0  0.0 0.584070570767D-03-0.261479726760D-11 0.000000000000D+00
    0.880000000000D+02-0.158437500000D+02 0.481520068263D-08 0.119642483201D+00
   -0.713393092155D-06 0.157866975060D-01 0.109393149614D-04 0.515358421326D+04
    0.151200000000D+06-0.160187482834D-06-0.270568405108D+01 0.283122062683D-06
    0.943635231406D+00 0.163218750000D+03-0.210829139146D+01-0.826534396481D-08
    0.347514461652D-09 0.100000000000D+01 0.190200000000D+04 0.000000000000D+00
    0.200000000000D+01 0.000000000000D+00-0.200234353542D-07 0.880000000000D+02
    0.144000000000D+06 0.000000000000D+00 0.000000000000D+00 0.000000000000D+00
 3 16  6 20 18  0  0.0-0.689965672791D-04-0.329691829393D-11 0.000000000000D+00
    0.380000000000D+02 0.868750000000D+01 0.483162982821D-08 0.746186076479D+00
    0.473111867905D-06 0.213855295442D-03 0.504963099956D-05 0.515367054176D+04
    0.151200000000D+06 0.186264514923D-08-0.161809693459D+01-0.540167093277D-07
    0.958789509089D+00 0.284031250000D+03-0.165905971898D+01-0.813212444991D-08
    0.514307137242D-10 0.100000000000D+01 0.190200000000D+04 0.000000000000D+00
    0.200000000000D+01 0.000000000000D+00 0.186264514923D-08 0.380000000000D+02
    0.144018000000D+06 0.400000000000D+01 0.000000000000D+00 0.000000000000D+00
 4 16  6 20 18  0  0.0-0.258042942733D-03-0.568434188608D-12 0.000000000000D+00
    0.410000000000D+02 0.305000000000D+02 0.567309344997D-08 0.293502550186D+01
    0.142119824886D-05 0.851228483953D-02 0.458210706711D-06 0.515365167046D+04
    0.151200000000D+06-0.819563865662D-07 0.154646673079D+01-0.149011611938D-06
    0.982992201342D+00 0.383968750000D+03 0.898201611371D+00-0.816819738106D-08
    0.989326923723D-10 0.000000000000D+00 0.190200000000D+04 0.000000000000D+00
    0.200000000000D+01 0.630000000000D+02-0.195577740669D-07 0.410000000000D+02
    0.149370000000D+06 0.400000000000D+01 0.000000000000D+00 0.000000000000D+00
